#aV2009  4 22  0  0   .00000000      96 DD+AD WGS84 FIT  NGA
## 1528 259200.00000000   900.00000000 54943  .0000000000000
+   31     2  3  4  5  6  7  8  9 10 11 12 13 14 15 16 17 18
+         19 20 21 22 23 24 25 26 27 28 29 30 31 32  0  0  0
+          0  0  0  0  0  0  0  0  0  0  0  0  0  0  0  0  0
+          0  0  0  0  0  0  0  0  0  0  0  0  0  0  0  0  0
+          0  0  0  0  0  0  0  0  0  0  0  0  0  0  0  0  0
++         0  0  0  0  0  0  0  0  0  0  0  0  0  0  0  0  0
++         0  0  0  0  0  0  0  0  0  0  0  0  0  0  0  0  0
++         0  0  0  0  0  0  0  0  0  0  0  0  0  0  0  0  0
++         0  0  0  0  0  0  0  0  0  0  0  0  0  0  0  0  0
++         0  0  0  0  0  0  0  0  0  0  0  0  0  0  0  0  0
%c cc cc ccc ccc cccc cccc cccc cccc ccccc ccccc ccccc ccccc
%c cc cc ccc ccc cccc cccc cccc cccc ccccc ccccc ccccc ccccc
%f  0.0000000  0.000000000  0.00000000000  0.000000000000000
%f  0.0000000  0.000000000  0.00000000000  0.000000000000000
%i    0    0    0    0      0      0      0      0         0
%i    0    0    0    0      0      0      0      0         0
/*      NGA, ST. LOUIS,MO.                                  
/*   EPHEMERIS COMPUTED FROM  3 DAYS OF DATA                
/* CCCCCCCCCCCCCCCCCCCCCCCCCCCCCCCCCCCCCCCCCCCCCCCCCCCCCCCCC
/* CCCCCCCCCCCCCCCCCCCCCCCCCCCCCCCCCCCCCCCCCCCCCCCCCCCCCCCCC
*  2009  4 22  1 45   .00000000                                                 
P  2 -21036.449848  13098.570082   8868.439837    153.563014                    
V  2 -12067.109155     33.310127 -28749.066395       .001248                    
P  3   9986.326141 -22459.960305   9290.163986    382.796784                    
V  3   2219.569177  12797.618358  28002.502620       .052162                    
P  4 -26107.939472   5202.124502  -2865.740211    -61.111570                    
V  4   2484.849896  -3906.167805 -30800.004912      -.150276                    
P  5  11375.858875  20658.126967 -12636.682716    -43.731016                    
V  5 -13757.523361  -7693.782119 -25451.431571      -.149789                    
P  6  13720.832873 -18590.293093  13249.425519     91.028793                    
V  6   -446.773889  16838.375393  24494.101665       .167759                    
P  7 -15983.325180  -9143.765010  19163.015071     20.026218                    
V  7  23033.267784  -7892.258273  15317.562080      -.005256                    
P  8 -24996.997651   -864.087864   9597.757941   -199.561993                    
V  8  11477.599559  -3992.632629  28890.757536      -.018017                    
P  9  -1911.840848  16059.304877 -21702.939399     52.001011                    
V  9 -24906.563560   7543.512594   8118.433110       .019279                    
P 10  -8389.756532  12925.348856  21438.749266    -14.756834                    
V 10 -19829.418965 -19285.869002   4169.824823      -.006168                    
P 11  -1583.148460 -17541.209127 -20016.312022       .277949                    
V 11  23051.836867 -10704.934804   7992.299569      -.014111                    
P 12   8785.527751  21298.477503 -13244.898967   -291.149405                    
V 12 -13533.036851 -10301.234840 -25282.377451       .049109                    
P 13  -7705.435941 -16773.021214  18973.351119    295.142924                    
V 13   8056.583461 -22922.560520 -16872.031019       .010210                    
P 14  15285.484667  -1923.219117 -21499.470285   -122.198624                    
V 14  -7128.973053  26588.468197  -7514.523873       .058277                    
P 15  -6887.081813  25586.964998   1265.682287   -283.770237                    
V 15  -2566.063925  -2225.319867  31646.111783      -.041538                    
P 16  12526.420417  -8712.231743  21818.051970     57.444091                    
V 16  19300.612506  19610.525858  -3025.435074      -.031618                    
P 17 -15502.601199   -252.282965 -21480.552106     55.353148                    
V 17   6573.312543 -26663.153099  -4603.930618       .018295                    
P 18  20596.729962  16428.527392  -4464.310090    -63.493200                    
V 18   1951.182302   6335.659423  30430.664515       .033960                    
P 19   7226.093190 -25372.617002  -1444.890136     27.718336                    
V 19   3580.312508   -856.535098  31772.784415      -.009348                    
P 20 -10733.042986 -21392.323002 -11690.601554     84.686414                    
V 20  12696.977155   7864.901698 -26295.968053      -.010383                    
P 21  19816.185998   7428.495036  16661.341918     17.994105                    
V 21 -19350.247960   7106.099531  19516.880228      -.019811                    
P 22  21343.849578   7672.252640 -13722.008465    201.152600                    
V 22  10392.159963  14579.779609  23977.199341      -.007530                    
P 23  -1309.914244 -24172.747130  10546.878277    389.571191                    
V 23   5684.377199 -12534.265835 -28158.722096       .003083                    
P 24   5201.269598  14644.801340  21659.328280    183.095713                    
V 24 -26445.974023   6526.840378   2206.672968       .029573                    
P 25  -8803.425962 -12702.996644  21930.141292    372.434354                    
V 25  24989.429306 -10267.454303   4343.741186       .208525                    
P 26  -4122.163334  25495.361527  -5418.985867     57.883572                    
V 26  -3836.873057   5368.835400  31818.407442       .017958                    
P 27 -15635.951270  15653.633385 -14085.224972     42.821859                    
V 27 -18559.302771   4437.033100  24344.453671       .030557                    
P 28 -21430.097477 -10359.616850 -11676.884818    -24.155995                    
V 28  -9228.119805 -12481.294683  26707.199514      -.002849                    
P 29   7908.352175  18203.192103  17777.272024     12.248784                    
V 29  -7461.222881  21125.906629 -18386.431924       .041322                    
P 30  17571.092117  19592.691354  -4263.354146    140.910952                    
V 30  -5672.930157  -1073.364886 -30874.875288       .027543                    
P 31  25636.637493  -7214.666214   -332.712801    -58.341795                    
V 31      5.099029   2425.184855 -31917.269068      -.009859                    
P 32  -2320.742642 -20275.125051 -16732.027772    271.529250                    
V 32  15705.991694  15370.948276 -20081.191670      -.049534                    
EOF
